STARLINK-31129          
1 58624U 23203G   25143.38928634 -.00001743  00000+0 -53844-4 0  9997
2 58624  43.0019 266.5643 0000986 252.2896 107.7848 15.27579593 79164
STARLINK-30774          
1 58625U 23203H   25143.38542631 -.00008463  00000+0 -29817-3 0  9995
2 58625  42.9944 266.5330 0000330  54.9247 305.1636 15.27603920 79164
STARLINK-31086          
1 58626U 23203J   25143.62127214 -.00000067  00000+0  70859-5 0  9994
2 58626  42.9970 264.8670 0001143 257.4298 102.6425 15.27579142 79200
STARLINK-31065          
1 58627U 23203K   25143.61144295  .00014381  00000+0  55385-3 0  9990
2 58627  42.9995 264.7977 0002613 281.2219  78.8339 15.26189899 79201
STARLINK-31092          
1 58628U 23203L   25143.64310834 -.00000130  00000+0  47861-5 0  9998
2 58628  43.0007 265.0257 0001484 278.0454  82.0229 15.27591466 79206
STARLINK-31091          
1 58629U 23203M   25143.62354299 -.00000507  00000+0 -95530-5 0  9995
2 58629  43.0009 266.5998 0000412 233.5930 126.4883 15.25913328 79181
STARLINK-31084          
1 58630U 23203N   25143.62127736 -.00000091  00000+0  63650-5 0  9996
2 58630  43.0022 266.5828 0002114 274.8130  85.2479 15.25916282 79186
STARLINK-31064          
1 58631U 23203P   25143.61675393  .00000418  00000+0  25819-4 0  9999
2 58631  42.9988 266.5555 0000852 240.3110 119.7656 15.25913402 80358
STARLINK-31081          
1 58632U 23203Q   25143.61448093 -.00009681  00000+0 -36024-3 0  9997
2 58632  43.0012 266.5400 0001920 279.9107  80.1527 15.25952222 80417
STARLINK-31022          
1 58633U 23203R   25143.61901683 -.00001109  00000+0 -32523-4 0  9995
2 58633  42.9978 266.5693 0002709 283.5162  76.5387 15.25915418 80418
STARLINK-31025          
1 58634U 23203S   25143.60488531 -.00002568  00000+0 -88331-4 0  9995
2 58634  42.9998 262.9565 0001193 255.4394 104.6325 15.25927186 80454
STARLINK-31018          
1 58635U 23203T   25143.60728976  .00001882  00000+0  77885-4 0  9994
2 58635  42.9975 265.6241 0000539 142.5441 217.5448 15.27573497 80424
STARLINK-31008          
1 58636U 23203U   25143.60986158  .00000360  00000+0  22591-4 0  9997
2 58636  42.9971 265.6437 0000460 162.8154 197.2714 15.27570705 80426
STARLINK-31077          
1 58637U 23203V   25143.40730013  .00039113  00000+0  14323-2 0  9993
2 58637  43.0021 266.7055 0000156  36.3498 323.7364 15.27373549 80391
STARLINK-31078          
1 58638U 23203W   25143.33803401 -.00000124  00000+0  50033-5 0  9990
2 58638  43.0005 267.0408 0001283 188.6641 171.4188 15.27578936 79154
STARLINK-31070          
1 58639U 23203X   25143.61370787  .00000394  00000+0  23839-4 0  9999
2 58639  43.0011 265.6706 0000874 214.9282 145.1512 15.27584085 79191
STARLINK-31090          
1 58640U 23203Y   25143.59142410  .00018303  00000+0  67472-3 0  9997
2 58640  42.9978 257.7224 0001061 196.3454 163.7363 15.27495444 79294
STARLINK-31113          
1 58668U 23211B   25143.41004576 -.00000381  00000+0 -43336-5 0  9991
2 58668  43.0029 284.3118 0000996 281.6251  78.4489 15.27576055 78074
STARLINK-31128          
1 58669U 23211C   25143.41508355 -.00000082  00000+0  66896-5 0  9999
2 58669  42.9990 284.3516 0000618 284.1736  75.9046 15.25906733 78078
STARLINK-31083          
1 58670U 23211D   25143.40619126  .00001455  00000+0  62408-4 0  9997
2 58670  42.9992 284.2882 0000712 262.3906  97.6864 15.27572562 78079
STARLINK-30828          
1 58671U 23211E   25143.46018938  .00013051  00000+0  50890-3 0  9994
2 58671  43.0026 283.8485 0001205 263.1799  96.8915 15.25843805 78089
STARLINK-31104          
1 58672U 23211F   25143.53310742 -.00000398  00000+0 -49576-5 0  9994
2 58672  42.9994 283.5230 0000784 266.6086  93.4676 15.27580306 79371
STARLINK-31131          
1 58673U 23211G   25143.34609325 -.00001537  00000+0 -46343-4 0  9996
2 58673  43.0010 274.1830 0000823 260.0003 100.0756 15.27577371 79468
STARLINK-31124          
1 58674U 23211H   25142.49849511  .00021526  00000+0  78943-3 0  9993
2 58674  43.0005 289.5093 0000958 308.3602  51.7163 15.27581587 77932
STARLINK-31126          
1 58675U 23211J   25143.39848074  .00000534  00000+0  28936-4 0  9991
2 58675  42.9993 284.2228 0001297 216.3883 143.6880 15.27574315 78079
STARLINK-31066          
1 58676U 23211K   25143.35059165 -.00001077  00000+0 -64690-4 0  9995
2 58676  43.0059  12.3043 0000892 260.8877  99.1864 15.02531759 78319
STARLINK-31058          
1 58677U 23211L   25143.41740183 -.00181888  00000+0 -69948-2 0  9998
2 58677  43.0013 284.3651 0001289 228.3282 131.7459 15.26478020 78079
STARLINK-31125          
1 58678U 23211M   25143.45792007  .00000736  00000+0  37996-4 0  9995
2 58678  43.0025 283.8296 0002119 276.5660  83.4950 15.25909556 79252
STARLINK-31110          
1 58679U 23211N   25143.42024419  .00103893  00000+0  38015-2 0  9997
2 58679  42.9985 284.3883 0000280 306.1102  53.9724 15.26973508 78071
STARLINK-31112          
1 58680U 23211P   25142.89368143 -.00000783  00000+0 -20113-4 0  9992
2 58680  42.9965 287.3143 0000651 221.1661 138.9141 15.25898016 79179
STARLINK-31147          
1 58681U 23211Q   25143.41961184  .00005841  00000+0  23304-3 0  9998
2 58681  43.0003 284.3827 0001586 261.0699  98.9972 15.25899756 78070
STARLINK-31144          
1 58682U 23211R   25142.67016636  .00001913  00000+0  82986-4 0  9997
2 58682  42.9999 288.2312 0001612 251.8741 108.1935 15.25892144 77964
STARLINK-31095          
1 58683U 23211S   25143.41282367  .00000128  00000+0  14726-4 0  9991
2 58683  43.0016 284.3375 0001074 273.6127  86.4601 15.25905967 79345
STARLINK-31107          
1 58684U 23211T   25143.46925566  .00027315  00000+0  10544-2 0  9991
2 58684  42.9996 283.9064 0000192 214.9157 145.1681 15.25776332 78085
STARLINK-31121          
1 58685U 23211U   25143.39699116  .00001682  00000+0  74151-4 0  9998
2 58685  43.0021 284.2321 0001860 282.9192  77.1451 15.25905381 78070
STARLINK-31137          
1 58686U 23211V   25143.38794074  .00000657  00000+0  34961-4 0  9993
2 58686  43.0006 284.1593 0001566 284.9974  75.0703 15.25904860 78075
STARLINK-31139          
1 58688U 23211X   25143.38487655  .00026114  00000+0  95455-3 0  9999
2 58688  43.0049 284.1487 0003154 318.7974  41.2639 15.27597835 78072
STARLINK-31106          
1 58689U 23211Y   25143.40830856 -.00004447  00000+0 -16036-3 0  9993
2 58689  43.0006 284.3060 0001169 266.3754  93.6963 15.25894355 78079
STARLINK-11072 [DTC]    
1 58705U 24002A   25143.52464114  .00000534  00000+0  92622-5 0  9992
2 58705  53.1585 264.4301 0001028  89.2094 270.9041 15.69709351 80868
STARLINK-11075 [DTC]    
1 58706U 24002B   25143.52954467  .00000514  00000+0  90989-5 0  9990
2 58706  53.1591 264.4666 0000737  83.1758 276.9344 15.69709027 80868
STARLINK-11077 [DTC]    
1 58707U 24002C   25143.53445056 -.00000088  00000+0  41327-5 0  9990
2 58707  53.1586 264.4813 0000942  97.3552 262.7573 15.69707945 80868
STARLINK-11079 [DTC]    
1 58708U 24002D   25143.51973924  .00001870  00000+0  20296-4 0  9999
2 58708  53.1592 264.3915 0000972  79.5793 280.5335 15.69696206 80861
STARLINK-11076 [DTC]    
1 58709U 24002E   25143.51483228  .00003889  00000+0  36944-4 0  9992
2 58709  53.1561 264.3643 0000996  90.0771 270.0361 15.69705829 80704
STARLINK-11078 [DTC]    
1 58710U 24002F   25143.50992572 -.00000078  00000+0  42094-5 0  9992
2 58710  53.1594 264.3350 0000786  94.6575 265.4532 15.69709069 80816
STARLINK-31031          
1 58711U 24002G   25143.35004276  .00001118  00000+0  97425-4 0  9993
2 58711  53.1599 134.2906 0001232  84.0325 276.0805 15.04922977 77627
STARLINK-31029          
1 58712U 24002H   25143.26013416 -.00002033  00000+0 -12271-3 0  9994
2 58712  53.1591 135.1446 0000809  69.2110 290.8966 15.04924113 77609
STARLINK-30973          
1 58713U 24002J   25143.25691238  .00000953  00000+0  85918-4 0  9994
2 58713  53.1593 135.1253 0001203  75.5226 284.5898 15.04929165 77601
STARLINK-31100          
1 58714U 24002K   25143.38651749 -.00000205  00000+0  50672-5 0  9993
2 58714  53.1594 134.5102 0001830  59.6618 300.4553 15.04924129 77626
STARLINK-31102          
1 58715U 24002L   25143.38329900  .00000410  00000+0  48042-4 0  9999
2 58715  53.1595 134.4922 0001285  89.7821 270.3316 15.04920608 77621
STARLINK-31098          
1 58716U 24002M   25143.38008612  .00000646  00000+0  64476-4 0  9994
2 58716  53.1595 134.4713 0001324  88.7463 271.3679 15.04936699 77625
STARLINK-31093          
1 58717U 24002N   25143.35326140 -.00000855  00000+0 -40339-4 0  9997
2 58717  53.1602 134.3279 0001347  76.2774 283.8366 15.04929485 77629
STARLINK-31097          
1 58718U 24002P   25143.57609826  .00000336  00000+0  42825-4 0  9991
2 58718  53.1598 133.5604 0001198  87.0937 273.0190 15.04926355 77654
STARLINK-31051          
1 58719U 24002Q   25143.37364043  .00000719  00000+0  69600-4 0  9994
2 58719  53.1596 134.4295 0001436  82.0067 278.1085 15.04927746 77624
STARLINK-31027          
1 58720U 24002R   25143.37044258  .00000779  00000+0  73810-4 0  9993
2 58720  53.1593 134.4091 0001329  88.6353 271.4789 15.04926224 77625
STARLINK-30972          
1 58721U 24002S   25143.36720410  .00000242  00000+0  36284-4 0  9993
2 58721  53.1594 134.3909 0001268  86.2658 273.8477 15.04926194 77624
STARLINK-31040          
1 58722U 24002T   25143.36291600 -.00000905  00000+0 -43823-4 0  9993
2 58722  53.1599 134.3663 0001528  83.7481 276.3683 15.04931005 77626
STARLINK-31033          
1 58723U 24002U   25143.41323164 -.00000481  00000+0 -14227-4 0  9996
2 58723  53.1591 133.9641 0001412  77.7893 282.3254 15.04924709 77637
STARLINK-30893          
1 58724U 24002V   25143.35968363  .00003141  00000+0  23854-3 0  9995
2 58724  53.1590 134.3553 0001433  68.1315 291.9827 15.04945518 77622
STARLINK-30856          
1 58725U 24002W   25143.35647653  .00000062  00000+0  23682-4 0  9991
2 58725  53.1595 134.3321 0001321  86.3821 273.7320 15.04918083 77624
